{
  "type": "FeatureCollection",
  "features": [
    {
      "type": "Feature",
      "properties": {
        "norad_id": 66654,
        "name": "JACK E",
        "group": "last-30-days",
        "lat": -68.58065721304939,
        "lon": -52.80108021246233,
        "alt_km": 597.5402400758767,
        "timestamp": "2025-12-25T22:42:15.707561+00:00",
        "meta_object_name": "JACK E",
        "meta_object_id": "2025-274E",
        "meta_epoch": "2025-12-25T18:11:22.631712",
        "meta_mean_motion": 14.9215245,
        "meta_eccentricity": 0.0012397,
        "meta_inclination": 97.7406,
        "meta_ra_of_asc_node": 286.7263,
        "meta_arg_of_pericenter": 206.9936,
        "meta_mean_anomaly": 153.064,
        "meta_ephemeris_type": 0,
        "meta_classification_type": "U",
        "meta_norad_cat_id": 66654,
        "meta_element_set_no": 999,
        "meta_rev_at_epoch": 434,
        "meta_bstar": 0.00032963,
        "meta_mean_motion_dot": 3.303e-05,
        "meta_mean_motion_ddot": 0,
        "tle_line1": "1 66654U 25274E   25359.75790083  .00003303  00000+0  32963-3 0  9994",
        "tle_line2": "2 66654  97.7406 286.7263 0012397 206.9936 153.0640 14.92152450  4346"
      },
      "geometry": {
        "type": "Point",
        "coordinates": [
          -52.80108021246233,
          -68.58065721304939
        ]
      }
    },
    {
      "type": "Feature",
      "properties": {
        "norad_id": 66655,
        "name": "2025-274F",
        "group": "last-30-days",
        "lat": -67.23667031069718,
        "lon": 87.9865218195244,
        "alt_km": 601.326289188908,
        "timestamp": "2025-12-25T22:42:15.707571+00:00",
        "meta_object_name": "2025-274F",
        "meta_object_id": "2025-274F",
        "meta_epoch": "2025-12-25T18:22:19.797024",
        "meta_mean_motion": 14.91199318,
        "meta_eccentricity": 0.0004455,
        "meta_inclination": 97.7336,
        "meta_ra_of_asc_node": 286.7062,
        "meta_arg_of_pericenter": 336.6899,
        "meta_mean_anomaly": 23.4117,
        "meta_ephemeris_type": 0,
        "meta_classification_type": "U",
        "meta_norad_cat_id": 66655,
        "meta_element_set_no": 999,
        "meta_rev_at_epoch": 434,
        "meta_bstar": 1.0625e-05,
        "meta_mean_motion_dot": 5.1e-07,
        "meta_mean_motion_ddot": 0,
        "tle_line1": "1 66655U 25274F   25359.76550691  .00000051  00000+0  10625-4 0  9994",
        "tle_line2": "2 66655  97.7336 286.7062 0004455 336.6899  23.4117 14.91199318  4343"
      },
      "geometry": {
        "type": "Point",
        "coordinates": [
          87.9865218195244,
          -67.23667031069718
        ]
      }
    },
    {
      "type": "Feature",
      "properties": {
        "norad_id": 66656,
        "name": "2025-274G",
        "group": "last-30-days",
        "lat": -49.53325410066915,
        "lon": -63.90698495967975,
        "alt_km": 599.3494463512998,
        "timestamp": "2025-12-25T22:42:15.707581+00:00",
        "meta_object_name": "2025-274G",
        "meta_object_id": "2025-274G",
        "meta_epoch": "2025-12-25T16:29:32.161920",
        "meta_mean_motion": 14.92349038,
        "meta_eccentricity": 0.0012956,
        "meta_inclination": 97.7403,
        "meta_ra_of_asc_node": 286.6643,
        "meta_arg_of_pericenter": 209.015,
        "meta_mean_anomaly": 151.035,
        "meta_ephemeris_type": 0,
        "meta_classification_type": "U",
        "meta_norad_cat_id": 66656,
        "meta_element_set_no": 999,
        "meta_rev_at_epoch": 433,
        "meta_bstar": 0.0003589,
        "meta_mean_motion_dot": 3.62e-05,
        "meta_mean_motion_ddot": 0,
        "tle_line1": "1 66656U 25274G   25359.68717780  .00003620  00000+0  35890-3 0  9995",
        "tle_line2": "2 66656  97.7403 286.6643 0012956 209.0150 151.0350 14.92349038  4334"
      },
      "geometry": {
        "type": "Point",
        "coordinates": [
          -63.90698495967975,
          -49.53325410066915
        ]
      }
    },
    {
      "type": "Feature",
      "properties": {
        "norad_id": 66657,
        "name": "SPIRONE",
        "group": "last-30-days",
        "lat": -31.059491650988946,
        "lon": -68.37543027503897,
        "alt_km": 597.8377885761392,
        "timestamp": "2025-12-25T22:42:15.707591+00:00",
        "meta_object_name": "SPIRONE",
        "meta_object_id": "2025-274H",
        "meta_epoch": "2025-12-25T18:01:04.033632",
        "meta_mean_motion": 14.92527899,
        "meta_eccentricity": 0.001096,
        "meta_inclination": 97.74,
        "meta_ra_of_asc_node": 286.734,
        "meta_arg_of_pericenter": 226.2948,
        "meta_mean_anomaly": 133.7364,
        "meta_ephemeris_type": 0,
        "meta_classification_type": "U",
        "meta_norad_cat_id": 66657,
        "meta_element_set_no": 999,
        "meta_rev_at_epoch": 434,
        "meta_bstar": 0.00036151,
        "meta_mean_motion_dot": 3.661e-05,
        "meta_mean_motion_ddot": 0,
        "tle_line1": "1 66657U 25274H   25359.75074113  .00003661  00000+0  36151-3 0  9996",
        "tle_line2": "2 66657  97.7400 286.7340 0010960 226.2948 133.7364 14.92527899  4342"
      },
      "geometry": {
        "type": "Point",
        "coordinates": [
          -68.37543027503897,
          -31.059491650988946
        ]
      }
    },
    {
      "type": "Feature",
      "properties": {
        "norad_id": 66658,
        "name": "2025-274J",
        "group": "last-30-days",
        "lat": -13.067185775814831,
        "lon": -71.25707102966979,
        "alt_km": 597.8131487438568,
        "timestamp": "2025-12-25T22:42:15.707604+00:00",
        "meta_object_name": "2025-274J",
        "meta_object_id": "2025-274J",
        "meta_epoch": "2025-12-25T17:56:13.034112",
        "meta_mean_motion": 14.927091,
        "meta_eccentricity": 0.0011464,
        "meta_inclination": 97.74,
        "meta_ra_of_asc_node": 286.7386,
        "meta_arg_of_pericenter": 229.5134,
        "meta_mean_anomaly": 130.5087,
        "meta_ephemeris_type": 0,
        "meta_classification_type": "U",
        "meta_norad_cat_id": 66658,
        "meta_element_set_no": 999,
        "meta_rev_at_epoch": 434,
        "meta_bstar": 0.00051473,
        "meta_mean_motion_dot": 5.263e-05,
        "meta_mean_motion_ddot": 0,
        "tle_line1": "1 66658U 25274J   25359.74737308  .00005263  00000+0  51473-3 0  9992",
        "tle_line2": "2 66658  97.7400 286.7386 0011464 229.5134 130.5087 14.92709100  4340"
      },
      "geometry": {
        "type": "Point",
        "coordinates": [
          -71.25707102966979,
          -13.067185775814831
        ]
      }
    },
    {
      "type": "Feature",
      "properties": {
        "norad_id": 66659,
        "name": "JACK K",
        "group": "last-30-days",
        "lat": 6.1152660913438375,
        "lon": -73.89217024348493,
        "alt_km": 597.2290368385011,
        "timestamp": "2025-12-25T22:42:15.707616+00:00",
        "meta_object_name": "JACK K",
        "meta_object_id": "2025-274K",
        "meta_epoch": "2025-12-25T17:51:03.115584",
        "meta_mean_motion": 14.92878978,
        "meta_eccentricity": 0.0012214,
        "meta_inclination": 97.7403,
        "meta_ra_of_asc_node": 286.7439,
        "meta_arg_of_pericenter": 231.5343,
        "meta_mean_anomaly": 128.4781,
        "meta_ephemeris_type": 0,
        "meta_classification_type": "U",
        "meta_norad_cat_id": 66659,
        "meta_element_set_no": 999,
        "meta_rev_at_epoch": 434,
        "meta_bstar": 0.00032014,
        "meta_mean_motion_dot": 3.265e-05,
        "meta_mean_motion_ddot": 0,
        "tle_line1": "1 66659U 25274K   25359.74378606  .00003265  00000+0  32014-3 0  9995",
        "tle_line2": "2 66659  97.7403 286.7439 0012214 231.5343 128.4781 14.92878978  4349"
      },
      "geometry": {
        "type": "Point",
        "coordinates": [
          -73.89217024348493,
          6.1152660913438375
        ]
      }
    },
    {
      "type": "Feature",
      "properties": {
        "norad_id": 66660,
        "name": "K-HERO",
        "group": "last-30-days",
        "lat": 21.75666291308048,
        "lon": -76.16070623260967,
        "alt_km": 596.1108457362234,
        "timestamp": "2025-12-25T22:42:15.707626+00:00",
        "meta_object_name": "K-HERO",
        "meta_object_id": "2025-274L",
        "meta_epoch": "2025-12-25T17:46:50.473344",
        "meta_mean_motion": 14.93029991,
        "meta_eccentricity": 0.0012851,
        "meta_inclination": 97.7404,
        "meta_ra_of_asc_node": 286.7492,
        "meta_arg_of_pericenter": 232.3573,
        "meta_mean_anomaly": 127.6481,
        "meta_ephemeris_type": 0,
        "meta_classification_type": "U",
        "meta_norad_cat_id": 66660,
        "meta_element_set_no": 999,
        "meta_rev_at_epoch": 434,
        "meta_bstar": 0.00031069,
        "meta_mean_motion_dot": 3.18e-05,
        "meta_mean_motion_ddot": 0,
        "tle_line1": "1 66660U 25274L   25359.74086196  .00003180  00000+0  31069-3 0  9992",
        "tle_line2": "2 66660  97.7404 286.7492 0012851 232.3573 127.6481 14.93029991  4344"
      },
      "geometry": {
        "type": "Point",
        "coordinates": [
          -76.16070623260967,
          21.75666291308048
        ]
      }
    }
  ]
}